QIANFAN-57              
1 62787U 25016C   25344.60323805  .00000185  00000+0  26875-3 0  9993
2 62787  88.9783 103.4192 0002223 123.2367 236.8997 13.50975694 46911
QIANFAN-58              
1 62788U 25016D   25344.64850773  .00000186  00000+0  26876-3 0  9999
2 62788  88.9752 103.2469 0013203 355.8052   4.2987 13.50977577 46960
QIANFAN-59              
1 62789U 25016E   25344.59910612  .00000192  00000+0  27803-3 0  9991
2 62789  88.9776 103.3251 0013694 359.7574   0.3568 13.50979196 46953
QIANFAN-60              
1 62790U 25016F   25344.63217117  .00000083  00000+0  11025-3 0  9996
2 62790  88.9757 103.2936 0015061 355.4060   4.6951 13.50982568 46945
QIANFAN-61              
1 62791U 25016G   25344.59088777  .00000192  00000+0  27947-3 0  9991
2 62791  88.9824 103.4593 0014048 355.2656   4.8359 13.50979553 46950
QIANFAN-62              
1 62792U 25016H   25344.59499646  .00000192  00000+0  27935-3 0  9990
2 62792  88.9771 103.3285 0015434 355.0620   5.0376 13.50976022 46947
QIANFAN-63              
1 62793U 25016J   25344.61972139  .00000193  00000+0  28089-3 0  9999
2 62793  88.9778 103.2773 0015625   0.4908 359.6256 13.50982723 46982
QIANFAN-64              
1 62794U 25016K   25344.58675342  .00000197  00000+0  28578-3 0  9999
2 62794  88.9764 103.2551 0013386 354.1476   5.9516 13.50977816 46979
